start=new Date('2022-03-03T00:00:00.000Z').valueOf();
sats=[{"APOAPSIS":"548.361","OBJECT_NAME":"STARLINK-1138","REF_FRAME":"TEME","LAUNCH_DATE":"2020-02-17","TLE_LINE2":"2 45178  53.0555 157.3160 0001639  66.3816 293.7345 15.06395889113497","OBJECT_ID":"2020-012A","RCS_SIZE":"LARGE","MEAN_ANOMALY":"293.7345","BSTAR":"0.00009370800000","SEMIMAJOR_AXIS":"6925.361","MEAN_MOTION":"15.06395889","REV_AT_EPOCH":"11349","MEAN_MOTION_DOT":"0.00001114","INCLINATION":"53.0555","EPOCH":"2022-03-02T13:21:31.887648","CENTER_NAME":"EARTH","DECAY_DATE":null,"COUNTRY_CODE":"US","ELEMENT_SET_NO":"999","RA_OF_ASC_NODE":"157.3160","MEAN_ELEMENT_THEORY":"SGP4","GP_ID":"197623845","CLASSIFICATION_TYPE":"U","ARG_OF_PERICENTER":"66.3816","TIME_SYSTEM":"UTC","SITE":"AFETR","EPHEMERIS_TYPE":"0","FILE":"3341350","MEAN_MOTION_DDOT":"0.0000000000000","NORAD_CAT_ID":"45178","PERIOD":"95.592","ECCENTRICITY":"0.00016390","TLE_LINE1":"1 45178U 20012A   22061.55661907  .00001114  00000-0  93708-4 0  9998","PERIAPSIS":"546.091","OBJECT_TYPE":"PAYLOAD"},{"RCS_SIZE":"LARGE","MEAN_ANOMALY":"298.2123","BSTAR":"-0.00000225430000","MEAN_MOTION":"15.06404772","SEMIMAJOR_AXIS":"6925.334","REV_AT_EPOCH":"11356","MEAN_MOTION_DOT":"-0.00000315","INCLINATION":"53.0531","EPOCH":"2022-03-02T15:02:22.228224","CENTER_NAME":"EARTH","COUNTRY_CODE":"US","DECAY_DATE":null,"APOAPSIS":"548.239","OBJECT_NAME":"STARLINK-1143","LAUNCH_DATE":"2020-02-17","REF_FRAME":"TEME","TLE_LINE2":"2 45179  53.0531 157.0062 0001502  61.9017 298.2123 15.06404772113567","OBJECT_ID":"2020-012B","EPHEMERIS_TYPE":"0","FILE":"3341695","MEAN_MOTION_DDOT":"0.0000000000000","PERIOD":"95.592","NORAD_CAT_ID":"45179","ECCENTRICITY":"0.00015020","TLE_LINE1":"1 45179U 20012B   22061.62664616 -.00000315  00000-0 -22543-5 0  9991","PERIAPSIS":"546.159","OBJECT_TYPE":"PAYLOAD","ELEMENT_SET_NO":"999","RA_OF_ASC_NODE":"157.0062","MEAN_ELEMENT_THEORY":"SGP4","GP_ID":"197657096","CLASSIFICATION_TYPE":"U","ARG_OF_PERICENTER":"61.9017","TIME_SYSTEM":"UTC","SITE":"AFETR"},{"OBJECT_ID":"2020-012C","TLE_LINE2":"2 45180  53.0540 157.0367 0001800  67.0999 293.0180 15.06552806113562","OBJECT_NAME":"STARLINK-1192","LAUNCH_DATE":"2020-02-17","REF_FRAME":"TEME","APOAPSIS":"547.992","DECAY_DATE":null,"COUNTRY_CODE":"US","CENTER_NAME":"EARTH","INCLINATION":"53.0540","EPOCH":"2022-03-02T14:49:45.852384","REV_AT_EPOCH":"11356","MEAN_MOTION_DOT":"0.00007893","BSTAR":"0.00054598000000","SEMIMAJOR_AXIS":"6924.880","MEAN_MOTION":"15.06552806","RCS_SIZE":"LARGE","MEAN_ANOMALY":"293.0180","SITE":"AFETR","TIME_SYSTEM":"UTC","ARG_OF_PERICENTER":"67.0999","CLASSIFICATION_TYPE":"U","GP_ID":"197657848","MEAN_ELEMENT_THEORY":"SGP4","RA_OF_ASC_NODE":"157.0367","ELEMENT_SET_NO":"999","OBJECT_TYPE":"PAYLOAD","TLE_LINE1":"1 45180U 20012C   22061.61789181  .00007893  00000-0  54598-3 0  9996","ECCENTRICITY":"0.00018000","PERIAPSIS":"545.499","MEAN_MOTION_DDOT":"0.0000000000000","NORAD_CAT_ID":"45180","PERIOD":"95.582","FILE":"3341695","EPHEMERIS_TYPE":"0"},{"OBJECT_TYPE":"PAYLOAD","PERIAPSIS":"546.104","TLE_LINE1":"1 45181U 20012D   22061.67826102 -.00002382  00000-0 -14111-3 0  9995","ECCENTRICITY":"0.00016270","MEAN_MOTION_DDOT":"0.0000000000000","NORAD_CAT_ID":"45181","PERIOD":"95.593","FILE":"3341695","EPHEMERIS_TYPE":"0","SITE":"AFETR","TIME_SYSTEM":"UTC","ARG_OF_PERICENTER":"62.1457","CLASSIFICATION_TYPE":"U","GP_ID":"197658099","MEAN_ELEMENT_THEORY":"SGP4","ELEMENT_SET_NO":"999","RA_OF_ASC_NODE":"156.7704","COUNTRY_CODE":"US","DECAY_DATE":null,"CENTER_NAME":"EARTH","INCLINATION":"53.0576","EPOCH":"2022-03-02T16:16:41.752128","REV_AT_EPOCH":"11357","MEAN_MOTION_DOT":"-0.00002382","BSTAR":"-0.00014111000000","SEMIMAJOR_AXIS":"6925.366","MEAN_MOTION":"15.06394254","RCS_SIZE":"LARGE","MEAN_ANOMALY":"297.9696","OBJECT_ID":"2020-012D","TLE_LINE2":"2 45181  53.0576 156.7704 0001627  62.1457 297.9696 15.06394254113572","OBJECT_NAME":"STARLINK-1200","LAUNCH_DATE":"2020-02-17","REF_FRAME":"TEME","APOAPSIS":"548.358"},{"OBJECT_ID":"2020-012E","TLE_LINE2":"2 45182  53.0547 136.6998 0001535  58.1824 301.9315 15.06397642113707","OBJECT_NAME":"STARLINK-1201","REF_FRAME":"TEME","LAUNCH_DATE":"2020-02-17","APOAPSIS":"548.284","COUNTRY_CODE":"US","DECAY_DATE":null,"CENTER_NAME":"EARTH","INCLINATION":"53.0547","EPOCH":"2022-03-02T16:45:53.064576","REV_AT_EPOCH":"11370","MEAN_MOTION_DOT":"-0.00000284","BSTAR":"-0.00000014660000","SEMIMAJOR_AXIS":"6925.356","MEAN_MOTION":"15.06397642","RCS_SIZE":"LARGE","MEAN_ANOMALY":"301.9315","SITE":"AFETR","TIME_SYSTEM":"UTC","ARG_OF_PERICENTER":"58.1824","CLASSIFICATION_TYPE":"U","GP_ID":"197656846","MEAN_ELEMENT_THEORY":"SGP4","ELEMENT_SET_NO":"999","RA_OF_ASC_NODE":"136.6998","OBJECT_TYPE":"PAYLOAD","TLE_LINE1":"1 45182U 20012E   22061.69853084 -.00000284  00000-0 -14660-6 0  9998","ECCENTRICITY":"0.00015350","PERIAPSIS":"546.158","MEAN_MOTION_DDOT":"0.0000000000000","NORAD_CAT_ID":"45182","PERIOD":"95.592","FILE":"3341695","EPHEMERIS_TYPE":"0"},{"GP_ID":"197656597","CLASSIFICATION_TYPE":"U","RA_OF_ASC_NODE":"156.3149","ELEMENT_SET_NO":"999","MEAN_ELEMENT_THEORY":"SGP4","SITE":"AFETR","ARG_OF_PERICENTER":"65.4799","TIME_SYSTEM":"UTC","MEAN_MOTION_DDOT":"0.0000000000000","PERIOD":"95.593","NORAD_CAT_ID":"45183","EPHEMERIS_TYPE":"0","FILE":"3341695","OBJECT_TYPE":"PAYLOAD","ECCENTRICITY":"0.00014270","TLE_LINE1":"1 45183U 20012F   22061.78146830 -.00000561  00000-0 -18748-4 0  9990","PERIAPSIS":"546.260","TLE_LINE2":"2 45183  53.0543 156.3149 0001427  65.4799 294.6339 15.06388734113596","APOAPSIS":"548.236","OBJECT_NAME":"STARLINK-1202","LAUNCH_DATE":"2020-02-17","REF_FRAME":"TEME","OBJECT_ID":"2020-012F","REV_AT_EPOCH":"11359","MEAN_MOTION_DOT":"-0.00000561","RCS_SIZE":"LARGE","MEAN_ANOMALY":"294.6339","BSTAR":"-0.00001874800000","SEMIMAJOR_AXIS":"6925.383","MEAN_MOTION":"15.06388734","DECAY_DATE":null,"COUNTRY_CODE":"US","INCLINATION":"53.0543","EPOCH":"2022-03-02T18:45:18.861120","CENTER_NAME":"EARTH"},{"CLASSIFICATION_TYPE":"U","GP_ID":"197657349","MEAN_ELEMENT_THEORY":"SGP4","RA_OF_ASC_NODE":"136.6445","ELEMENT_SET_NO":"999","SITE":"AFETR","TIME_SYSTEM":"UTC","ARG_OF_PERICENTER":"59.4948","MEAN_MOTION_DDOT":"0.0000000000000","PERIOD":"95.592","NORAD_CAT_ID":"45184","FILE":"3341695","EPHEMERIS_TYPE":"0","OBJECT_TYPE":"PAYLOAD","TLE_LINE1":"1 45184U 20012G   22061.70589791 -.00000019  00000-0  17618-4 0  9992","PERIAPSIS":"546.044","ECCENTRICITY":"0.00016910","TLE_LINE2":"2 45184  53.0549 136.6445 0001691  59.4948 300.6207 15.06399395112894","OBJECT_NAME":"STARLINK-1205","REF_FRAME":"TEME","LAUNCH_DATE":"2020-02-17","APOAPSIS":"548.386","OBJECT_ID":"2020-012G","REV_AT_EPOCH":"11289","MEAN_MOTION_DOT":"-0.00000019","BSTAR":"0.00001761800000","SEMIMAJOR_AXIS":"6925.350","MEAN_MOTION":"15.06399395","RCS_SIZE":"LARGE","MEAN_ANOMALY":"300.6207","COUNTRY_CODE":"US","DECAY_DATE":null,"CENTER_NAME":"EARTH","INCLINATION":"53.0549","EPOCH":"2022-03-02T16:56:29.579424"},{"OBJECT_ID":"2020-012H","APOAPSIS":"548.186","OBJECT_NAME":"STARLINK-1216","REF_FRAME":"TEME","LAUNCH_DATE":"2020-02-17","TLE_LINE2":"2 45185  53.0543 156.3461 0001422  82.8231 277.2919 15.06404108113533","INCLINATION":"53.0543","EPOCH":"2022-03-02T18:34:40.790208","CENTER_NAME":"EARTH","COUNTRY_CODE":"US","DECAY_DATE":null,"RCS_SIZE":"LARGE","MEAN_ANOMALY":"277.2919","BSTAR":"0.00017027000000","SEMIMAJOR_AXIS":"6925.336","MEAN_MOTION":"15.06404108","REV_AT_EPOCH":"11353","MEAN_MOTION_DOT":"0.00002256","ARG_OF_PERICENTER":"82.8231","TIME_SYSTEM":"UTC","SITE":"AFETR","ELEMENT_SET_NO":"999","RA_OF_ASC_NODE":"156.3461","MEAN_ELEMENT_THEORY":"SGP4","GP_ID":"197657600","CLASSIFICATION_TYPE":"U","TLE_LINE1":"1 45185U 20012H   22061.77408322  .00002256  00000-0  17027-3 0  9997","ECCENTRICITY":"0.00014220","PERIAPSIS":"546.216","OBJECT_TYPE":"PAYLOAD","EPHEMERIS_TYPE":"0","FILE":"3341695","MEAN_MOTION_DDOT":"0.0000000000000","NORAD_CAT_ID":"45185","PERIOD":"95.592"},{"REV_AT_EPOCH":"11349","MEAN_MOTION_DOT":"-0.00000108","RCS_SIZE":"LARGE","MEAN_ANOMALY":"301.7143","BSTAR":"0.00001166900000","MEAN_MOTION":"15.06404376","SEMIMAJOR_AXIS":"6925.335","COUNTRY_CODE":"US","DECAY_DATE":null,"INCLINATION":"53.0544","EPOCH":"2022-03-02T12:33:45.232416","CENTER_NAME":"EARTH","TLE_LINE2":"2 45186  53.0544 157.4730 0001467  58.3989 301.7143 15.06404376113497","APOAPSIS":"548.216","OBJECT_NAME":"STARLINK-1224","LAUNCH_DATE":"2020-02-17","REF_FRAME":"TEME","OBJECT_ID":"2020-012J","MEAN_MOTION_DDOT":"0.0000000000000","PERIOD":"95.592","NORAD_CAT_ID":"45186","EPHEMERIS_TYPE":"0","FILE":"3341350","OBJECT_TYPE":"PAYLOAD","TLE_LINE1":"1 45186U 20012J   22061.52344019 -.00000108  00000-0  11669-4 0  9995","ECCENTRICITY":"0.00014670","PERIAPSIS":"546.184","GP_ID":"197623846","CLASSIFICATION_TYPE":"U","ELEMENT_SET_NO":"999","RA_OF_ASC_NODE":"157.4730","MEAN_ELEMENT_THEORY":"SGP4","SITE":"AFETR","ARG_OF_PERICENTER":"58.3989","TIME_SYSTEM":"UTC"},{"REV_AT_EPOCH":"11354","MEAN_MOTION_DOT":"0.00001335","RCS_SIZE":"LARGE","MEAN_ANOMALY":"298.1235","BSTAR":"0.00010846000000","SEMIMAJOR_AXIS":"6925.327","MEAN_MOTION":"15.06406970","COUNTRY_CODE":"US","DECAY_DATE":null,"INCLINATION":"53.0557","EPOCH":"2022-03-02T12:39:03.507552","CENTER_NAME":"EARTH","TLE_LINE2":"2 45187  53.0557 157.4477 0001442  61.9900 298.1235 15.06406970113545","APOAPSIS":"548.191","OBJECT_NAME":"STARLINK-1225","REF_FRAME":"TEME","LAUNCH_DATE":"2020-02-17","OBJECT_ID":"2020-012K","MEAN_MOTION_DDOT":"0.0000000000000","NORAD_CAT_ID":"45187","PERIOD":"95.592","EPHEMERIS_TYPE":"0","FILE":"3341350","OBJECT_TYPE":"PAYLOAD","PERIAPSIS":"546.194","TLE_LINE1":"1 45187U 20012K   22061.52712393  .00001335  00000-0  10846-3 0  9997","ECCENTRICITY":"0.00014420","GP_ID":"197625096","CLASSIFICATION_TYPE":"U","ELEMENT_SET_NO":"999","RA_OF_ASC_NODE":"157.4477","MEAN_ELEMENT_THEORY":"SGP4","SITE":"AFETR","ARG_OF_PERICENTER":"61.9900","TIME_SYSTEM":"UTC"}];
